[{"OBJECT_NAME":"EOSSAT-1","OBJECT_ID":"2023-001AW","EPOCH":"2026-03-09T17:40:07.010400","MEAN_MOTION":15.32339828,"ECCENTRICITY":0.00112629,"INCLINATION":97.3357,"RA_OF_ASC_NODE":130.2294,"ARG_OF_PERICENTER":110.3168,"MEAN_ANOMALY":249.9285,"EPHEMERIS_TYPE":0,"CLASSIFICATION_TYPE":"U","NORAD_CAT_ID":55053,"ELEMENT_SET_NO":999,"REV_AT_EPOCH":17668,"BSTAR":0.00024844399,"MEAN_MOTION_DOT":7.695e-5,"MEAN_MOTION_DDOT":0},{"OBJECT_NAME":"STARLINK-34273","OBJECT_ID":"2025-157B","EPOCH":"2026-03-09T04:19:19.035552","MEAN_MOTION":15.30181902,"ECCENTRICITY":0.00011822,"INCLINATION":53.1608,"RA_OF_ASC_NODE":348.1885,"ARG_OF_PERICENTER":58.1528,"MEAN_ANOMALY":301.9587,"EPHEMERIS_TYPE":0,"CLASSIFICATION_TYPE":"U","NORAD_CAT_ID":64905,"ELEMENT_SET_NO":999,"REV_AT_EPOCH":3605,"BSTAR":0.0013347067,"MEAN_MOTION_DOT":0.00039358,"MEAN_MOTION_DDOT":0}]
