EOSSAT-1                
1 55053U 23001AW  26068.73619225  .00007695  00000+0  24844-3 0  9992
2 55053  97.3357 130.2294 0011263 110.3168 249.9285 15.32339828176689
STARLINK-34273          
1 64905U 25157B   26068.18008143  .00039358  00000+0  13347-2 0  9998
2 64905  53.1608 348.1885 0001182  58.1528 301.9587 15.30181902 36054
